{"type": "FeatureCollection", "features": [ {"type": "Feature", "properties": {"norad_id": 40792, "name": "COSMOS 2251 DEB", "group": "cosmos-2251-debris", "lat": 11.965357524334342, "lon": -140.112105775067, "alt_km": 659.4863474881113, "timestamp": "2025-12-14T20:40:32.171387+00:00", "meta": {"OBJECT_NAME": "COSMOS 2251 DEB", "OBJECT_ID": "1993-036BVV", "EPOCH": "2025-12-13T21:48:53.616096", "MEAN_MOTION": 14.67590278, "ECCENTRICITY": 0.00153774, "INCLINATION": 74.0462, "RA_OF_ASC_NODE": 45.2013, "ARG_OF_PERICENTER": 149.8992, "MEAN_ANOMALY": 27.0176, "EPHEMERIS_TYPE": 0, "CLASSIFICATION_TYPE": "U", "NORAD_CAT_ID": 40792, "ELEMENT_SET_NO": 999, "REV_AT_EPOCH": 63201, "BSTAR": 0.0011407186, "MEAN_MOTION_DOT": 6.465e-05, "MEAN_MOTION_DDOT": 0}, "tle": {"line1": "1 40792U 93036BVV 25347.90895389  .00006465  00000+0  11407-2 0  9990", "line2": "2 40792  74.0462  45.2013 0015377 149.8992  27.0176 14.67590278632011"}}, "geometry": {"type": "Point", "coordinates": [-140.112105775067, 11.965357524334342]}}, {"type": "Feature", "properties": {"norad_id": 40793, "name": "COSMOS 2251 DEB", "group": "cosmos-2251-debris", "lat": 13.28545976676673, "lon": 165.29524461044093, "alt_km": 787.2102566492449, "timestamp": "2025-12-14T20:40:32.171397+00:00", "meta": {"OBJECT_NAME": "COSMOS 2251 DEB", "OBJECT_ID": "1993-036BVW", "EPOCH": "2025-11-17T22:59:08.433600", "MEAN_MOTION": 14.0559149, "ECCENTRICITY": 0.02150611, "INCLINATION": 73.9793, "RA_OF_ASC_NODE": 208.5839, "ARG_OF_PERICENTER": 10.058, "MEAN_ANOMALY": 350.4754, "EPHEMERIS_TYPE": 0, "CLASSIFICATION_TYPE": "U", "NORAD_CAT_ID": 40793, "ELEMENT_SET_NO": 999, "REV_AT_EPOCH": 67897, "BSTAR": 0.0015211732, "MEAN_MOTION_DOT": 3.024e-05, "MEAN_MOTION_DDOT": 0}, "tle": {"line1": "1 40793U 93036BVW 25321.95773650  .00003024  00000+0  15212-2 0  9990", "line2": "2 40793  73.9793 208.5839 0215061  10.0580 350.4754 14.05591490678970"}}, "geometry": {"type": "Point", "coordinates": [165.29524461044093, 13.28545976676673]}}, {"type": "Feature", "properties": {"norad_id": 40794, "name": "COSMOS 2251 DEB", "group": "cosmos-2251-debris", "lat": 38.71127175159424, "lon": 133.27408680112237, "alt_km": 590.4251061593804, "timestamp": "2025-12-14T20:40:32.171407+00:00", "meta": {"OBJECT_NAME": "COSMOS 2251 DEB", "OBJECT_ID": "1993-036BVX", "EPOCH": "2025-12-13T15:37:41.141568", "MEAN_MOTION": 14.93159868, "ECCENTRICITY": 0.00107848, "INCLINATION": 73.9763, "RA_OF_ASC_NODE": 122.399, "ARG_OF_PERICENTER": 261.0962, "MEAN_ANOMALY": 116.104, "EPHEMERIS_TYPE": 0, "CLASSIFICATION_TYPE": "U", "NORAD_CAT_ID": 40794, "ELEMENT_SET_NO": 999, "REV_AT_EPOCH": 61938, "BSTAR": 0.0047306735, "MEAN_MOTION_DOT": 0.00049759, "MEAN_MOTION_DDOT": 0}, "tle": {"line1": "1 40794U 93036BVX 25347.65117062  .00049759  00000+0  47307-2 0  9990", "line2": "2 40794  73.9763 122.3990 0010784 261.0962 116.1040 14.93159868619387"}}, "geometry": {"type": "Point", "coordinates": [133.27408680112237, 38.71127175159424]}}, {"type": "Feature", "properties": {"norad_id": 40796, "name": "COSMOS 2251 DEB", "group": "cosmos-2251-debris", "lat": -5.941367385802942, "lon": 136.28356616645283, "alt_km": 620.091510489021, "timestamp": "2025-12-14T20:40:32.171417+00:00", "meta": {"OBJECT_NAME": "COSMOS 2251 DEB", "OBJECT_ID": "1993-036BVZ", "EPOCH": "2025-12-12T16:55:09.916896", "MEAN_MOTION": 14.81698665, "ECCENTRICITY": 0.00560879, "INCLINATION": 74.0118, "RA_OF_ASC_NODE": 142.2573, "ARG_OF_PERICENTER": 278.9039, "MEAN_ANOMALY": 95.9751, "EPHEMERIS_TYPE": 0, "CLASSIFICATION_TYPE": "U", "NORAD_CAT_ID": 40796, "ELEMENT_SET_NO": 999, "REV_AT_EPOCH": 76158, "BSTAR": 0.0013346453, "MEAN_MOTION_DOT": 0.00010785, "MEAN_MOTION_DDOT": 0}, "tle": {"line1": "1 40796U 93036BVZ 25346.70497589  .00010785  00000+0  13346-2 0  9995", "line2": "2 40796  74.0118 142.2573 0056087 278.9039  95.9751 14.81698665761584"}}, "geometry": {"type": "Point", "coordinates": [136.28356616645283, -5.941367385802942]}}, {"type": "Feature", "properties": {"norad_id": 40797, "name": "COSMOS 2251 DEB", "group": "cosmos-2251-debris", "lat": -71.3637894289881, "lon": 32.10694913249833, "alt_km": 533.3368462839862, "timestamp": "2025-12-14T20:40:32.171427+00:00", "meta": {"OBJECT_NAME": "COSMOS 2251 DEB", "OBJECT_ID": "1993-036BWA", "EPOCH": "2025-11-19T18:43:16.602528", "MEAN_MOTION": 15.10509474, "ECCENTRICITY": 0.00703947, "INCLINATION": 73.92, "RA_OF_ASC_NODE": 143.0892, "ARG_OF_PERICENTER": 60.6639, "MEAN_ANOMALY": 300.156, "EPHEMERIS_TYPE": 0, "CLASSIFICATION_TYPE": "U", "NORAD_CAT_ID": 40797, "ELEMENT_SET_NO": 999, "REV_AT_EPOCH": 64297, "BSTAR": 0.00072810385, "MEAN_MOTION_DOT": 0.00012707, "MEAN_MOTION_DDOT": 0}, "tle": {"line1": "1 40797U 93036BWA 25323.78005327  .00012707  00000+0  72810-3 0  9992", "line2": "2 40797  73.9200 143.0892 0070394  60.6639 300.1560 15.10509474642979"}}, "geometry": {"type": "Point", "coordinates": [32.10694913249833, -71.3637894289881]}}, {"type": "Feature", "properties": {"norad_id": 40799, "name": "COSMOS 2251 DEB", "group": "cosmos-2251-debris", "lat": -2.4744164967352233, "lon": -85.24077851013648, "alt_km": 653.7980666940357, "timestamp": "2025-12-14T20:40:32.171437+00:00", "meta": {"OBJECT_NAME": "COSMOS 2251 DEB", "OBJECT_ID": "1993-036BWC", "EPOCH": "2025-12-13T13:22:39.892224", "MEAN_MOTION": 14.96671954, "ECCENTRICITY": 0.01192057, "INCLINATION": 73.926, "RA_OF_ASC_NODE": 96.6992, "ARG_OF_PERICENTER": 338.4049, "MEAN_ANOMALY": 21.2129, "EPHEMERIS_TYPE": 0, "CLASSIFICATION_TYPE": "U", "NORAD_CAT_ID": 40799, "ELEMENT_SET_NO": 999, "REV_AT_EPOCH": 49989, "BSTAR": 0.00041648324, "MEAN_MOTION_DOT": 5.451e-05, "MEAN_MOTION_DDOT": 0}, "tle": {"line1": "1 40799U 93036BWC 25347.55740616  .00005451  00000+0  41648-3 0  9995", "line2": "2 40799  73.9260  96.6992 0119205 338.4049  21.2129 14.96671954499896"}}, "geometry": {"type": "Point", "coordinates": [-85.24077851013648, -2.4744164967352233]}}, {"type": "Feature", "properties": {"norad_id": 40802, "name": "COSMOS 2251 DEB", "group": "cosmos-2251-debris", "lat": 73.041123894988, "lon": -141.35193118053778, "alt_km": 671.7140284137404, "timestamp": "2025-12-14T20:40:32.171448+00:00", "meta": {"OBJECT_NAME": "COSMOS 2251 DEB", "OBJECT_ID": "1993-036BWF", "EPOCH": "2025-12-14T04:02:34.779840", "MEAN_MOTION": 14.7763135, "ECCENTRICITY": 0.00631025, "INCLINATION": 74.0398, "RA_OF_ASC_NODE": 150.2093, "ARG_OF_PERICENTER": 248.6873, "MEAN_ANOMALY": 110.7559, "EPHEMERIS_TYPE": 0, "CLASSIFICATION_TYPE": "U", "NORAD_CAT_ID": 40802, "ELEMENT_SET_NO": 999, "REV_AT_EPOCH": 64430, "BSTAR": 0.00084362537, "MEAN_MOTION_DOT": 6.208e-05, "MEAN_MOTION_DDOT": 0}, "tle": {"line1": "1 40802U 93036BWF 25348.16845810  .00006208  00000+0  84363-3 0  9992", "line2": "2 40802  74.0398 150.2093 0063102 248.6873 110.7559 14.77631350644309"}}, "geometry": {"type": "Point", "coordinates": [-141.35193118053778, 73.041123894988]}}, {"type": "Feature", "properties": {"norad_id": 40803, "name": "COSMOS 2251 DEB", "group": "cosmos-2251-debris", "lat": 73.99900739711876, "lon": 136.716723335965, "alt_km": 737.7925217312613, "timestamp": "2025-12-14T20:40:32.171458+00:00", "meta": {"OBJECT_NAME": "COSMOS 2251 DEB", "OBJECT_ID": "1993-036BWG", "EPOCH": "2025-12-05T22:55:29.451072", "MEAN_MOTION": 14.51792027, "ECCENTRICITY": 0.00362816, "INCLINATION": 74.0122, "RA_OF_ASC_NODE": 64.6912, "ARG_OF_PERICENTER": 281.8159, "MEAN_ANOMALY": 77.8934, "EPHEMERIS_TYPE": 0, "CLASSIFICATION_TYPE": "U", "NORAD_CAT_ID": 40803, "ELEMENT_SET_NO": 999, "REV_AT_EPOCH": 58654, "BSTAR": 0.00062935795, "MEAN_MOTION_DOT": 2.525e-05, "MEAN_MOTION_DDOT": 0}, "tle": {"line1": "1 40803U 93036BWG 25339.95520198  .00002525  00000+0  62936-3 0  9999", "line2": "2 40803  74.0122  64.6912 0036281 281.8159  77.8934 14.51792027586549"}}, "geometry": {"type": "Point", "coordinates": [136.716723335965, 73.99900739711876]}}, {"type": "Feature", "properties": {"norad_id": 40808, "name": "COSMOS 2251 DEB", "group": "cosmos-2251-debris", "lat": 52.72082265631769, "lon": -60.70471236247878, "alt_km": 659.7791358783979, "timestamp": "2025-12-14T20:40:32.171468+00:00", "meta": {"OBJECT_NAME": "COSMOS 2251 DEB", "OBJECT_ID": "1993-036BWM", "EPOCH": "2025-12-12T17:28:24.743424", "MEAN_MOTION": 14.67479403, "ECCENTRICITY": 0.00092278, "INCLINATION": 74.041, "RA_OF_ASC_NODE": 145.4936, "ARG_OF_PERICENTER": 182.1345, "MEAN_ANOMALY": 195.7768, "EPHEMERIS_TYPE": 0, "CLASSIFICATION_TYPE": "U", "NORAD_CAT_ID": 40808, "ELEMENT_SET_NO": 999, "REV_AT_EPOCH": 63619, "BSTAR": 0.00245787, "MEAN_MOTION_DOT": 0.00013931, "MEAN_MOTION_DDOT": 0}, "tle": {"line1": "1 40808U 93036BWM 25346.72806416  .00013931  00000+0  24579-2 0  9990", "line2": "2 40808  74.0410 145.4936 0009227 182.1345 195.7768 14.67479403636197"}}, "geometry": {"type": "Point", "coordinates": [-60.70471236247878, 52.72082265631769]}}, {"type": "Feature", "properties": {"norad_id": 40810, "name": "COSMOS 2251 DEB", "group": "cosmos-2251-debris", "lat": -24.32380105915239, "lon": 63.261945938731365, "alt_km": 707.4361063889346, "timestamp": "2025-12-14T20:40:32.171478+00:00", "meta": {"OBJECT_NAME": "COSMOS 2251 DEB", "OBJECT_ID": "1993-036BWP", "EPOCH": "2025-12-13T23:23:40.805376", "MEAN_MOTION": 14.58732029, "ECCENTRICITY": 0.00184639, "INCLINATION": 74.0366, "RA_OF_ASC_NODE": 72.3839, "ARG_OF_PERICENTER": 224.0736, "MEAN_ANOMALY": 135.8958, "EPHEMERIS_TYPE": 0, "CLASSIFICATION_TYPE": "U", "NORAD_CAT_ID": 40810, "ELEMENT_SET_NO": 999, "REV_AT_EPOCH": 61701, "BSTAR": 0.00089103358, "MEAN_MOTION_DOT": 4.142e-05, "MEAN_MOTION_DDOT": 0}, "tle": {"line1": "1 40810U 93036BWP 25347.97477784  .00004142  00000+0  89103-3 0  9992", "line2": "2 40810  74.0366  72.3839 0018463 224.0736 135.8958 14.58732029617014"}}, "geometry": {"type": "Point", "coordinates": [63.261945938731365, -24.32380105915239]}}]}